QIANFAN-81              
1 63167U 25046J   25230.50469715  .00000138  00000+0  19419-3 0  9997
2 63167  88.9864 331.8577 0016750  98.6910 261.6139 13.50964994 31792
QIANFAN-82              
1 63168U 25046K   25229.87091999  .00000153  00000+0  21862-3 0  9993
2 63168  88.9864 331.9661 0014933 107.3246 252.9540 13.50961786 31693
QIANFAN-83              
1 63169U 25046L   25229.88515260  .00000176  00000+0  21196-3 0  9992
2 63169  88.9864 331.9699 0016203  99.8230 260.4758 13.61937002 31696
QIANFAN-84              
1 63170U 25046M   25229.89970901  .00000151  00000+0  21456-3 0  9994
2 63170  88.9864 332.0962 0017881 103.9171 256.3970 13.50969080 31629
QIANFAN-85              
1 63171U 25046N   25230.56230587  .00000140  00000+0  19726-3 0  9995
2 63171  88.9864 331.9006 0015277 104.6690 255.6156 13.50962947 31788
QIANFAN-86              
1 63172U 25046P   25230.57052852  .00000148  00000+0  21008-3 0  9998
2 63172  88.9866 331.7592 0013177 108.4762 251.7822 13.50963405 31864
QIANFAN-87              
1 63173U 25046Q   25229.87505963  .00000152  00000+0  21611-3 0  9991
2 63173  88.9862 331.9464 0013868 105.7352 254.5329 13.50959878 31708
QIANFAN-88              
1 63174U 25046R   25230.55822765  .00000135  00000+0  19028-3 0  9991
2 63174  88.9864 331.8282 0014268 110.9393 249.3286 13.50967424 31829
